{
  "norad_id": 58524,
  "name": "STARLINK-30992",
  "history": [
    {
      "epoch": "2026-03-28T18:45:48.566304Z",
      "apogee_km": 483.9521130651983,
      "perigee_km": 482.1621647382426,
      "latitude_deg": 2.9648986341780134e-06,
      "longitude_deg": -112.24768149773548,
      "height_km": 482.7439164750908,
      "semi_major_axis_km": 6861.19413890172,
      "eccentricity": 0.00013044,
      "inclination_deg": 43.0055,
      "raan_deg": 355.402,
      "arg_perigee_deg": 275.8014,
      "mean_anomaly_deg": 84.2689,
      "mean_motion_rev_day": 15.27577314
    },
    {
      "epoch": "2026-03-29T01:02:24.980352Z",
      "apogee_km": 483.92268626453006,
      "perigee_km": 482.10173726372886,
      "latitude_deg": -1.9209485272863108e-05,
      "longitude_deg": 151.8682913325092,
      "height_km": 482.65473849000205,
      "semi_major_axis_km": 6861.149211764129,
      "eccentricity": 0.0001327,
      "inclination_deg": 43.0059,
      "raan_deg": 353.9275,
      "arg_perigee_deg": 278.5129,
      "mean_anomaly_deg": 81.5572,
      "mean_motion_rev_day": 15.27592318
    },
    {
      "epoch": "2026-03-30T00:34:46.255872Z",
      "apogee_km": 484.0727265195983,
      "perigee_km": 481.99241990500104,
      "latitude_deg": 2.1782132998349397e-06,
      "longitude_deg": 152.27204428338186,
      "height_km": 482.82013875662454,
      "semi_major_axis_km": 6861.1695732123,
      "eccentricity": 0.0001516,
      "inclination_deg": 43.0051,
      "raan_deg": 348.3866,
      "arg_perigee_deg": 269.438,
      "mean_anomaly_deg": 90.6298,
      "mean_motion_rev_day": 15.27585518
    },
    {
      "epoch": "2026-03-30T00:34:46.256736Z",
      "apogee_km": 484.0727265195983,
      "perigee_km": 481.99241990500104,
      "latitude_deg": 2.1782135793963585e-06,
      "longitude_deg": 152.2720406735251,
      "height_km": 482.82013875662153,
      "semi_major_axis_km": 6861.1695732123,
      "eccentricity": 0.0001516,
      "inclination_deg": 43.0051,
      "raan_deg": 348.3866,
      "arg_perigee_deg": 269.438,
      "mean_anomaly_deg": 90.6298,
      "mean_motion_rev_day": 15.27585518
    },
    {
      "epoch": "2026-03-30T09:59:42.526752Z",
      "apogee_km": 484.06161489551323,
      "perigee_km": 481.9961295213425,
      "latitude_deg": 9.410951650263434e-06,
      "longitude_deg": 8.436004231531058,
      "height_km": 482.6630082676953,
      "semi_major_axis_km": 6861.165872208428,
      "eccentricity": 0.00015052,
      "inclination_deg": 43.0066,
      "raan_deg": 346.1717,
      "arg_perigee_deg": 277.9812,
      "mean_anomaly_deg": 82.0869,
      "mean_motion_rev_day": 15.27586754
    },
    {
      "epoch": "2026-03-30T17:50:30.793344Z",
      "apogee_km": 483.7047938084934,
      "perigee_km": 482.4544056953555,
      "latitude_deg": 5.640062524530343e-05,
      "longitude_deg": -111.4342102687368,
      "height_km": 482.73376096513647,
      "semi_major_axis_km": 6861.216599751924,
      "eccentricity": 9.112e-05,
      "inclination_deg": 43.0008,
      "raan_deg": 344.3248,
      "arg_perigee_deg": 281.272,
      "mean_anomaly_deg": 78.803,
      "mean_motion_rev_day": 15.27569813
    },
    {
      "epoch": "2026-03-31T09:32:04.888320Z",
      "apogee_km": 484.0404836025209,
      "perigee_km": 482.12345902193647,
      "latitude_deg": -4.6262275539763e-05,
      "longitude_deg": 8.837038147408508,
      "height_km": 482.47894105462854,
      "semi_major_axis_km": 6861.218971312228,
      "eccentricity": 0.0001397,
      "inclination_deg": 43.0061,
      "raan_deg": 340.6327,
      "arg_perigee_deg": 293.3806,
      "mean_anomaly_deg": 66.6898,
      "mean_motion_rev_day": 15.27569021
    },
    {
      "epoch": "2026-04-01T01:13:38.508096Z",
      "apogee_km": 484.03181442251116,
      "perigee_km": 482.0585384285714,
      "latitude_deg": -7.003725369146924e-06,
      "longitude_deg": 129.10922336946325,
      "height_km": 482.57566881101405,
      "semi_major_axis_km": 6861.182176425541,
      "eccentricity": 0.0001438,
      "inclination_deg": 43.0059,
      "raan_deg": 336.9394,
      "arg_perigee_deg": 284.4917,
      "mean_anomaly_deg": 75.5775,
      "mean_motion_rev_day": 15.27581309
    }
  ]
}